STARLINK-34397          
1 64356U 25126N   26183.48803172  .00001125  00000+0  10201-3 0  9998
2 64356  70.0018 105.1660 0003119 268.4061  91.6741 14.98335118 57870
STARLINK-34454          
1 64357U 25126P   26183.49237125  .00001444  00000+0  12872-3 0  9999
2 64357  70.0016 105.1790 0002801 268.5396  91.5443 14.98337934 57878
STARLINK-34436          
1 64358U 25126Q   26183.50486729  .00004173  00000+0  35747-3 0  9996
2 64358  70.0007 104.8186 0002989 265.3952  94.6866 14.98316340 57886
STARLINK-34291          
1 64359U 25126R   26183.52156612  .00003431  00000+0  29515-3 0  9996
2 64359  70.0010 104.8759 0002666 267.8636  92.2218 14.98337652 57889
STARLINK-34458          
1 64360U 25126S   26183.52991465  .00003713  00000+0  31872-3 0  9993
2 64360  70.0035 104.9072 0002446 264.2948  95.7933 14.98336785 57888
STARLINK-34243          
1 64361U 25126T   26183.20012314  .00003875  00000+0  33230-3 0  9995
2 64361  70.0012 105.7673 0003027 264.4359  95.6454 14.98338513 57837
STARLINK-34335          
1 64362U 25126U   26183.50887158  .00002419  00000+0  21039-3 0  9992
2 64362  70.0018 104.8387 0002634 265.8939  94.1919 14.98339592 57881
STARLINK-34408          
1 64363U 25126V   26183.16672470  .00006708  00000+0  56919-3 0  9994
2 64363  70.0019 105.6499 0002333 259.3042 100.7855 14.98347439 57832
STARLINK-34476          
1 64364U 25126W   26183.52140111  .00004789  00000+0  40877-3 0  9990
2 64364  70.0007 104.8798 0003012 270.5670  89.5144 14.98338205 57881
STARLINK-34479          
1 64365U 25126X   26183.49637416  .00007075  00000+0  59977-3 0  9998
2 64365  70.0018 105.1922 0002743 265.8877  94.1969 14.98352939 57879
STARLINK-34484          
1 64366U 25126Y   26183.50470430  .00003250  00000+0  27998-3 0  9991
2 64366  70.0015 104.8187 0002709 270.9985  89.0864 14.98336768 59090
STARLINK-34483          
1 64367U 25126Z   26183.50904403  .00002997  00000+0  25882-3 0  9991
2 64367  70.0008 104.8325 0002715 262.1958  97.8893 14.98335676 57888
STARLINK-34457          
1 64368U 25126AA  26183.47968509  .00000591  00000+0  57283-4 0  9994
2 64368  70.0015 105.1347 0002912 266.3795  93.7031 14.98335720 57877
STARLINK-34444          
1 64369U 25126AB  26183.48401272 -.00001332  00000+0 -10387-3 0  9994
2 64369  70.0016 105.1485 0002935 275.0602  85.0222 14.98320317 57873
STARLINK-11732 [DTC]    
1 64370U 25127A   26183.08827880  .00236016  00000+0  17926-2 0  9992
2 64370  43.0002 115.0403 0002537 132.0128 228.0956 15.70818284 61495
STARLINK-11731 [DTC]    
1 64371U 25127B   26182.84987705  .00207731  00000+0  15703-2 0  9992
2 64371  43.0003 116.7014 0002682 291.2601  68.7980 15.71019461 61451
STARLINK-11746 [DTC]    
1 64372U 25127C   26183.51744446  .00212546  00000+0  16140-2 0  9997
2 64372  43.0003 112.2293 0001774 292.5121  67.5558 15.70898241 61564
STARLINK-11748 [DTC]    
1 64373U 25127D   26183.11573765  .00171539  00000+0  13159-2 0  9991
2 64373  43.0006 115.2597 0001915 279.9852  80.0799 15.70786587 61493
STARLINK-11739 [DTC]    
1 64374U 25127E   26182.99283357  .00141303  00000+0  10857-2 0  9990
2 64374  42.9984 115.1674 0002008 196.8449 163.2352 15.70848266 61486
STARLINK-11738 [DTC]    
1 64375U 25127F   26183.49633234  .00208492  00000+0  15851-2 0  9992
2 64375  42.9994 112.9527 0003089 288.8490  71.2043 15.70879129 61553
STARLINK-11745 [DTC]    
1 64376U 25127G   26183.52805913  .00153349  00000+0  11753-2 0  9999
2 64376  43.0017 112.3137 0002357 255.3610 104.6996 15.70867150 61563
STARLINK-11742 [DTC]    
1 64377U 25127H   26183.09889824  .00170325  00000+0  13065-2 0  9996
2 64377  42.9997 115.1233 0001166 285.8848  74.1891 15.70791585 61490
STARLINK-11711 [DTC]    
1 64378U 25127J   26183.51213527  .00152937  00000+0  11714-2 0  9993
2 64378  43.0001 112.1851 0001889 227.4230 132.6479 15.70882548 61673
STARLINK-11743 [DTC]    
1 64379U 25127K   26183.10951385  .00131770  00000+0  10139-2 0  9992
2 64379  43.0007 115.2084 0001859 273.1903  86.8752 15.70846346 61494
STARLINK-11744 [DTC]    
1 64380U 25127L   26183.09358800  .00205502  00000+0  15681-2 0  9997
2 64380  43.0013 115.0791 0001789 275.0301  85.0362 15.70803818 61496
STARLINK-11692 [DTC]    
1 64381U 25127M   26183.52275849  .00232181  00000+0  17626-2 0  9991
2 64381  42.9975 112.2682 0000501 347.1822  12.9033 15.70843135 61670
STARLINK-11740 [DTC]    
1 64382U 25127N   26183.50681748  .00159864  00000+0  12219-2 0  9998
2 64382  43.0004 112.1391 0001640 286.0885  73.9802 15.70910781 61568
STARLINK-34299          
1 64383U 25127P   26183.58019565  .00023937  00000+0  87663-3 0  9996
2 64383  43.0007 251.3306 0001212 252.9845 107.0874 15.27576801 59981
STARLINK-34271          
1 64384U 25127Q   26183.56863233  .00013230  00000+0  48941-3 0  9995
2 64384  43.0002 251.2375 0000072 115.5800 244.5059 15.27579449 60031
STARLINK-34100          
1 64385U 25127R   26182.91861734  .00011400  00000+0  42302-3 0  9990
2 64385  43.0010 254.9613 0001237 263.9806  96.0904 15.27590807 59885
