OBJECT_NAME,OBJECT_ID,EPOCH,MEAN_MOTION,ECCENTRICITY,INCLINATION,RA_OF_ASC_NODE,ARG_OF_PERICENTER,MEAN_ANOMALY,EPHEMERIS_TYPE,CLASSIFICATION_TYPE,NORAD_CAT_ID,ELEMENT_SET_NO,REV_AT_EPOCH,BSTAR,MEAN_MOTION_DOT,MEAN_MOTION_DDOT
STARLINK-34397,2025-126N,2026-07-02T11:42:45.940608,14.98335118,.00031192,70.0018,105.1660,268.4061,91.6741,0,U,64356,999,5787,.10200745E-3,.1125E-4,0
STARLINK-34454,2025-126P,2026-07-02T11:49:00.876000,14.98337934,.00028016,70.0016,105.1790,268.5396,91.5443,0,U,64357,999,5787,.12872207E-3,.1444E-4,0
STARLINK-34436,2025-126Q,2026-07-02T12:07:00.533856,14.98316340,.00029892,70.0007,104.8186,265.3952,94.6866,0,U,64358,999,5788,.35746999E-3,.4173E-4,0
STARLINK-34291,2025-126R,2026-07-02T12:31:03.312768,14.98337652,.00026667,70.0010,104.8759,267.8636,92.2218,0,U,64359,999,5788,.29515489E-3,.3431E-4,0
STARLINK-34458,2025-126S,2026-07-02T12:43:04.625760,14.98336785,.0002446,70.0035,104.9072,264.2948,95.7933,0,U,64360,999,5788,.31872391E-3,.3713E-4,0
STARLINK-34243,2025-126T,2026-07-02T04:48:10.639296,14.98338513,.0003027,70.0012,105.7673,264.4359,95.6454,0,U,64361,999,5783,.33229767E-3,.3875E-4,0
STARLINK-34335,2025-126U,2026-07-02T12:12:46.504512,14.98339592,.00026341,70.0018,104.8387,265.8939,94.1919,0,U,64362,999,5788,.21038673E-3,.2419E-4,0
STARLINK-34408,2025-126V,2026-07-02T04:00:05.014080,14.98347439,.00023336,70.0019,105.6499,259.3042,100.7855,0,U,64363,999,5783,.56919446E-3,.6708E-4,0
STARLINK-34476,2025-126W,2026-07-02T12:30:49.055904,14.98338205,.00030124,70.0007,104.8798,270.5670,89.5144,0,U,64364,999,5788,.40877057E-3,.4789E-4,0
STARLINK-34479,2025-126X,2026-07-02T11:54:46.727424,14.98352939,.00027432,70.0018,105.1922,265.8877,94.1969,0,U,64365,999,5787,.59976903E-3,.7075E-4,0
STARLINK-34484,2025-126Y,2026-07-02T12:06:46.451520,14.98336768,.00027091,70.0015,104.8187,270.9985,89.0864,0,U,64366,999,5909,.27997971E-3,.325E-4,0
STARLINK-34483,2025-126Z,2026-07-02T12:13:01.404192,14.98335676,.00027159,70.0008,104.8325,262.1958,97.8893,0,U,64367,999,5788,.25881889E-3,.2997E-4,0
STARLINK-34457,2025-126AA,2026-07-02T11:30:44.791776,14.98335720,.00029123,70.0015,105.1347,266.3795,93.7031,0,U,64368,999,5787,.57282979E-4,.591E-5,0
STARLINK-34444,2025-126AB,2026-07-02T11:36:58.699008,14.98320317,.00029359,70.0016,105.1485,275.0602,85.0222,0,U,64369,999,5787,-.10387424E-3,-.1332E-4,0
STARLINK-11732 [DTC],2025-127A,2026-07-02T02:07:07.288320,15.70818284,.00025379,43.0002,115.0403,132.0128,228.0956,0,U,64370,999,6149,.1792641E-2,.236016E-2,0
STARLINK-11731 [DTC],2025-127B,2026-07-01T20:23:49.377120,15.71019461,.00026829,43.0003,116.7014,291.2601,68.7980,0,U,64371,999,6145,.15703006E-2,.207731E-2,0
STARLINK-11746 [DTC],2025-127C,2026-07-02T12:25:07.201344,15.70898241,.0001774,43.0003,112.2293,292.5121,67.5558,0,U,64372,999,6156,.16139539E-2,.212546E-2,0
STARLINK-11748 [DTC],2025-127D,2026-07-02T02:46:39.732960,15.70786587,.00019152,43.0006,115.2597,279.9852,80.0799,0,U,64373,999,6149,.13158533E-2,.171539E-2,0
STARLINK-11739 [DTC],2025-127E,2026-07-01T23:49:40.820448,15.70848266,.00020084,42.9984,115.1674,196.8449,163.2352,0,U,64374,999,6148,.10856724E-2,.141303E-2,0
STARLINK-11738 [DTC],2025-127F,2026-07-02T11:54:43.114176,15.70879129,.00030896,42.9994,112.9527,288.8490,71.2043,0,U,64375,999,6155,.15851332E-2,.208492E-2,0
STARLINK-11745 [DTC],2025-127G,2026-07-02T12:40:24.308832,15.70867150,.00023579,43.0017,112.3137,255.3610,104.6996,0,U,64376,999,6156,.11752635E-2,.153349E-2,0
STARLINK-11742 [DTC],2025-127H,2026-07-02T02:22:24.807936,15.70791585,.00011666,42.9997,115.1233,285.8848,74.1891,0,U,64377,999,6149,.13065075E-2,.170325E-2,0
STARLINK-11711 [DTC],2025-127J,2026-07-02T12:17:28.487328,15.70882548,.00018897,43.0001,112.1851,227.4230,132.6479,0,U,64378,999,6167,.11714498E-2,.152937E-2,0
STARLINK-11743 [DTC],2025-127K,2026-07-02T02:37:41.996640,15.70846346,.00018598,43.0007,115.2084,273.1903,86.8752,0,U,64379,999,6149,.10139177E-2,.13177E-2,0
STARLINK-11744 [DTC],2025-127L,2026-07-02T02:14:46.003200,15.70803818,.00017893,43.0013,115.0791,275.0301,85.0362,0,U,64380,999,6149,.1568107E-2,.205502E-2,0
STARLINK-11692 [DTC],2025-127M,2026-07-02T12:32:46.333536,15.70843135,.0000501,42.9975,112.2682,347.1822,12.9033,0,U,64381,999,6167,.17625759E-2,.232181E-2,0
STARLINK-11740 [DTC],2025-127N,2026-07-02T12:09:49.030272,15.70910781,.00016402,43.0004,112.1391,286.0885,73.9802,0,U,64382,999,6156,.12219008E-2,.159864E-2,0
STARLINK-34299,2025-127P,2026-07-02T13:55:28.904160,15.27576801,.00012127,43.0007,251.3306,252.9845,107.0874,0,U,64383,999,5998,.87663408E-3,.23937E-3,0
STARLINK-34271,2025-127Q,2026-07-02T13:38:49.833312,15.27579449,.00000729,43.0002,251.2375,115.5800,244.5059,0,U,64384,999,6003,.4894144E-3,.1323E-3,0
STARLINK-34100,2025-127R,2026-07-01T22:02:48.538176,15.27590807,.00012372,43.0010,254.9613,263.9806,96.0904,0,U,64385,999,5988,.42302294E-3,.114E-3,0
